NORAD_CAT_ID,OBJECT_NAME,OBJECT_TYPE,EPOCH,MEAN_MOTION,ECCENTRICITY,INCLINATION,RA_OF_ASC_NODE,ARG_OF_PERICENTER,MEAN_ANOMALY,BSTAR,MEAN_MOTION_DOT,MEAN_MOTION_DDOT,TLE_LINE0,TLE_LINE1,TLE_LINE2,SEMIMAJOR_AXIS,PERIOD,APOGEE,PERIGEE,DECAYED
54078.0,STARLINK-5138,PAYLOAD,2023-09-03 12:59:30,15.08842711,0.0001455,53.2146,125.9646,82.4808,277.635,0.0011628,0.00018268,0.0,0 STARLINK-5138,1 54078U 22136AD  23246.54132937  .00018268  00000-0  11628-2 0  9994,2 54078  53.2146 125.9646 0001455  82.4808 277.6350 15.08842711 48510,6917.872,95.437,540.744,538.731,0.0
54078.0,STARLINK-5138,PAYLOAD,2023-09-04 01:42:35,15.0884772,0.000136,53.215,123.5856,83.4097,276.705,0.00071144,0.00011055,0.0,0 STARLINK-5138,1 54078U 22136AD  23247.07124824  .00011055  00000-0  71144-3 0  9996,2 54078  53.2150 123.5856 0001360  83.4097 276.7050 15.08847720 49072,6917.857,95.437,540.663,538.781,0.0
54078.0,STARLINK-5138,PAYLOAD,2023-09-04 06:28:45,15.08838983,0.000141,53.215,122.6928,81.1538,278.9614,0.00032242,4.847e-05,0.0,0 STARLINK-5138,1 54078U 22136AD  23247.26997005  .00004847  00000-0  32242-3 0  9993,2 54078  53.2150 122.6928 0001410  81.1538 278.9614 15.08838983 49108,6917.883,95.438,540.724,538.773,0.0
54078.0,STARLINK-5138,PAYLOAD,2023-09-04 11:14:54,15.08836258,0.0001414,53.2149,121.801,82.3585,277.7567,0.00019411,2.802e-05,0.0,0 STARLINK-5138,1 54078U 22136AD  23247.46869104  .00002802  00000-0  19411-3 0  9995,2 54078  53.2149 121.8010 0001414  82.3585 277.7567 15.08836258 48654,6917.892,95.438,540.735,538.779,0.0
54078.0,STARLINK-5138,PAYLOAD,2023-09-05 01:33:22,15.08852164,0.0001382,53.2152,119.1249,82.0372,278.0777,0.00071131,0.00011054,0.0,0 STARLINK-5138,1 54078U 22136AD  23248.06484869  .00011054  00000-0  71131-3 0  9999,2 54078  53.2152 119.1249 0001382  82.0372 278.0777 15.08852164 48748,6917.843,95.437,540.664,538.752,0.0
54078.0,STARLINK-5138,PAYLOAD,2023-09-06 02:59:15,15.09247001,0.0001425,53.2153,114.3663,73.2122,286.9027,0.007375,0.00120434,0.0,0 STARLINK-5138,1 54078U 22136AD  23249.12448363  .00120434  00000-0  73750-2 0  9997,2 54078  53.2153 114.3663 0001425  73.2122 286.9027 15.09247001 49385,6916.637,95.412,539.487,537.516,0.0
54078.0,STARLINK-5138,PAYLOAD,2023-09-06 06:09:54,15.09331643,0.0001584,53.2154,113.7712,79.9482,280.1689,0.0075522,0.00123678,0.0,0 STARLINK-5138,1 54078U 22136AD  23249.25687822  .00123678  00000-0  75522-2 0  9998,2 54078  53.2154 113.7712 0001584  79.9482 280.1689 15.09331643 49401,6916.378,95.406,539.339,537.147,0.0
54078.0,STARLINK-5138,PAYLOAD,2023-09-06 22:03:22,15.09462285,0.0001641,53.2155,110.7956,83.1825,276.9354,0.0061659,0.0010096,0.0,0 STARLINK-5138,1 54078U 22136AD  23249.91900960  .00100960  00000-0  61659-2 0  9997,2 54078  53.2155 110.7956 0001641  83.1825 276.9354 15.09462285 49028,6915.979,95.398,538.979,536.709,0.0
54078.0,STARLINK-5138,PAYLOAD,2023-09-07 10:45:26,15.10128698,7.44e-05,53.2162,108.4121,102.1492,257.9584,0.011238,0.00190036,0.0,0 STARLINK-5138,1 54078U 22136AD  23250.44821816  .00190036  00000-0  11238-1 0  9999,2 54078  53.2162 108.4121 0000744 102.1492 257.9584 15.10128698 49583,6913.944,95.356,536.324,535.295,0.0
54078.0,STARLINK-5138,PAYLOAD,2023-09-07 13:56:00,15.10169143,0.0001451,53.2158,107.8162,78.7664,281.3492,0.010114,0.00170721,0.0,0 STARLINK-5138,1 54078U 22136AD  23250.58056138  .00170721  00000-0  10114-1 0  9992,2 54078  53.2158 107.8162 0001451  78.7664 281.3492 15.10169143 49120,6913.821,95.354,536.689,534.683,0.0
54078.0,STARLINK-5138,PAYLOAD,2023-09-07 22:00:00,15.10481371,0.0001321,53.2152,106.3047,88.9436,300.142,-0.0018646,-0.00031203,0.0,0 STARLINK-5138,1 54078U 22136AD  23250.91667824 -.00031203  00000-0 -18646-2 0  9991,2 54078  53.2152 106.3047 0001321  88.9436 300.1420 15.10481371 49655,6912.868,95.334,535.646,533.82,0.0
54078.0,STARLINK-5138,PAYLOAD,2023-09-08 14:00:01,15.10471989,0.0001318,53.215,103.3027,101.3514,314.8397,0.0020238,0.00033554,0.0,0 STARLINK-5138,1 54078U 22136AD  23251.58334491  .00033554  00000-0  20238-2 0  9995,2 54078  53.2150 103.3027 0001318 101.3514 314.8397 15.10471989 49751,6912.897,95.334,535.673,533.85,0.0
54078.0,STARLINK-5138,PAYLOAD,2023-09-08 22:00:00,15.10492024,0.0001321,53.215,101.8044,93.5695,336.1936,-0.0028044,-0.00046696,0.0,0 STARLINK-5138,1 54078U 22136AD  23251.91667824 -.00046696  00000-0 -28044-2 0  9997,2 54078  53.2150 101.8044 0001321  93.5695 336.1936 15.10492024  5862,6912.835,95.333,535.614,533.787,0.0
54078.0,STARLINK-5138,PAYLOAD,2023-09-09 06:00:00,15.10476437,0.0001255,53.2148,100.3032,98.937,344.3879,-0.0011082,-0.00018694,0.0,0 STARLINK-5138,1 54078U 22136AD  23252.25001157 -.00018694  00000-0 -11082-2 0  9997,2 54078  53.2148 100.3032 0001255  98.9370 344.3879 15.10476437 49860,6912.883,95.334,535.616,533.88,0.0
54078.0,STARLINK-5138,PAYLOAD,2023-09-09 14:00:01,15.10472039,0.0001334,53.2149,98.8022,104.5462,352.3283,0.0014435,0.00023816,0.0,0 STARLINK-5138,1 54078U 22136AD  23252.58334491  .00023816  00000-0  14435-2 0  9998,2 54078  53.2149  98.8022 0001334 104.5462 352.3283 15.10472039  5814,6912.896,95.334,535.684,533.839,0.0
54078.0,STARLINK-5138,PAYLOAD,2023-09-09 22:00:00,15.10479087,0.0001275,53.2149,97.3038,90.5911,19.8555,-0.0017692,-0.00029626,0.0,0 STARLINK-5138,1 54078U 22136AD  23252.91667824 -.00029626  00000-0 -17692-2 0  9999,2 54078  53.2149  97.3038 0001275  90.5911  19.8555 15.10479087 49963,6912.875,95.334,535.621,533.858,0.0
54078.0,STARLINK-5138,PAYLOAD,2023-09-10 14:00:01,15.10475669,0.0001275,53.2151,94.3016,95.2262,42.3188,0.0010277,0.00016857,0.0,0 STARLINK-5138,1 54078U 22136AD  23253.58334491  .00016857  00000-0  10277-2 0  9996,2 54078  53.2151  94.3016 0001275  95.2262  42.3188 15.10475669 50068,6912.885,95.334,535.632,533.869,0.0
54078.0,STARLINK-5138,PAYLOAD,2023-09-11 06:51:44,15.10478332,0.0001104,53.2156,91.1386,90.387,269.725,0.00013982,2.036e-05,0.0,0 STARLINK-5138,1 54078U 22136AD  23254.28593407  .00002036  00000-0  13982-3 0  9999,2 54078  53.2156  91.1386 0001104  90.3870 269.7250 15.10478332 50166,6912.877,95.334,535.505,533.979,0.0
54078.0,STARLINK-5138,PAYLOAD,2023-09-11 13:12:52,15.1047932,0.0001354,53.2155,89.9495,83.4992,276.6155,0.00019824,3.009e-05,0.0,0 STARLINK-5138,1 54078U 22136AD  23254.55060769  .00003009  00000-0  19824-3 0  9991,2 54078  53.2155  89.9495 0001354  83.4992 276.6155 15.10479320 49725,6912.874,95.334,535.675,533.803,0.0
54078.0,STARLINK-5138,PAYLOAD,2023-09-12 13:02:06,15.1047986,0.0001279,53.2165,85.4816,86.9634,273.1505,0.00011053,1.548e-05,0.0,0 STARLINK-5138,1 54078U 22136AD  23255.54312925  .00001548  00000-0  11053-3 0  9997,2 54078  53.2165  85.4816 0001279  86.9634 273.1505 15.10479860 49877,6912.873,95.334,535.622,533.853,0.0
54078.0,STARLINK-5138,PAYLOAD,2023-09-12 17:47:57,15.10480906,0.0001301,53.2172,84.5896,85.7989,274.3153,0.00012157,1.732e-05,0.0,0 STARLINK-5138,1 54078U 22136AD  23255.74163267  .00001732  00000-0  12157-3 0  9993,2 54078  53.2172  84.5896 0001301  85.7989 274.3153 15.10480906 50382,6912.869,95.334,535.634,533.835,0.0
54078.0,STARLINK-5138,PAYLOAD,2023-09-12 19:23:13,15.10483278,0.0001328,53.2169,84.2918,85.8452,274.2693,0.00015646,2.313e-05,0.0,0 STARLINK-5138,1 54078U 22136AD  23255.80779966  .00002313  00000-0  15646-3 0  9991,2 54078  53.2169  84.2918 0001328  85.8452 274.2693 15.10483278 49915,6912.862,95.334,535.645,533.809,0.0
54078.0,STARLINK-5138,PAYLOAD,2023-09-12 22:33:47,15.10490522,0.0001199,53.2161,83.6936,84.1484,275.9646,0.0002291,3.525e-05,0.0,0 STARLINK-5138,1 54078U 22136AD  23255.94013155  .00003525  00000-0  22910-3 0  9995,2 54078  53.2161  83.6936 0001199  84.1484 275.9646 15.10490522 50416,6912.84,95.333,535.534,533.876,0.0
54078.0,STARLINK-5138,PAYLOAD,2023-09-13 12:51:19,15.10483797,0.0001285,53.2165,81.0159,82.4893,277.6245,0.00018017,2.709e-05,0.0,0 STARLINK-5138,1 54078U 22136AD  23256.53564729  .00002709  00000-0  18017-3 0  9995,2 54078  53.2165  81.0159 0001285  82.4893 277.6245 15.10483797 50027,6912.861,95.334,535.614,533.837,0.0
54078.0,STARLINK-5138,PAYLOAD,2023-09-13 17:37:10,15.10485046,0.0001323,53.217,80.1228,95.735,264.3794,0.00013924,2.027e-05,0.0,0 STARLINK-5138,1 54078U 22136AD  23256.73414972  .00002027  00000-0  13924-3 0  9996,2 54078  53.2170  80.1228 0001323  95.7350 264.3794 15.10485046 50535,6912.857,95.334,535.636,533.807,0.0
54078.0,STARLINK-5138,PAYLOAD,2023-09-13 19:12:27,15.10486683,0.0001232,53.2169,79.8248,93.3186,266.7948,0.00013102,1.89e-05,0.0,0 STARLINK-5138,1 54078U 22136AD  23256.80031666  .00001890  00000-0  13102-3 0  9994,2 54078  53.2169  79.8248 0001232  93.3186 266.7948 15.10486683 50063,6912.852,95.334,535.568,533.865,0.0
54078.0,STARLINK-5138,PAYLOAD,2023-09-14 12:40:34,15.10468808,0.0001513,53.2165,76.5479,100.6072,259.5091,-8.1859e-05,-1.655e-05,0.0,0 STARLINK-5138,1 54078U 22136AD  23257.52817606 -.00001655  00000-0 -81859-4 0  9996,2 54078  53.2165  76.5479 0001513 100.6072 259.5091 15.10468808 50177,6912.906,95.335,535.817,533.725,0.0
54078.0,STARLINK-5138,PAYLOAD,2023-09-14 19:01:42,15.10467481,0.0001169,53.2154,75.3559,84.8612,275.2514,-0.00010877,-2.102e-05,0.0,0 STARLINK-5138,1 54078U 22136AD  23257.79285031 -.00002102  00000-0 -10877-3 0  9995,2 54078  53.2154  75.3559 0001169  84.8612 275.2514 15.10467481 50699,6912.91,95.335,535.583,533.967,0.0
54078.0,STARLINK-5138,PAYLOAD,2023-09-15 10:54:31,15.10471691,0.0001133,53.216,72.3772,82.2094,277.9027,5.1908e-05,5.72e-06,0.0,0 STARLINK-5138,1 54078U 22136AD  23258.45453346  .00000572  00000-0  51908-4 0  9993,2 54078  53.2160  72.3772 0001133  82.2094 277.9027 15.10471691 50312,6912.897,95.334,535.546,533.979,0.0
54078.0,STARLINK-5138,PAYLOAD,2023-09-15 18:50:55,15.10481841,0.000111,53.2164,70.8888,80.9164,279.1955,0.00016784,2.503e-05,0.0,0 STARLINK-5138,1 54078U 22136AD  23258.78537025  .00002503  00000-0  16784-3 0  9994,2 54078  53.2164  70.8888 0001110  80.9164 279.1955 15.10481841 50845,6912.866,95.334,535.499,533.964,0.0
